{
    "links": {
        "self": "http://www.neowsapp.com/rest/v1/neo/3829487?api_key=iIulBulltgU6a56xZRHN4H3l9WmuAYTsLGpBGhQ2"
    },
    "id": "3829487",
    "neo_reference_id": "3829487",
    "name": "(2018 RU7)",
    "designation": "2018 RU7",
    "nasa_jpl_url": "http://ssd.jpl.nasa.gov/sbdb.cgi?sstr=3829487",
    "absolute_magnitude_h": 21.9,
    "estimated_diameter": {
        "kilometers": {
            "estimated_diameter_min": 0.1108038821,
            "estimated_diameter_max": 0.2477650126
        },
        "meters": {
            "estimated_diameter_min": 110.8038821264,
            "estimated_diameter_max": 247.7650126055
        },
        "miles": {
            "estimated_diameter_min": 0.068850319,
            "estimated_diameter_max": 0.1539539936
        },
        "feet": {
            "estimated_diameter_min": 363.5298086356,
            "estimated_diameter_max": 812.8773639568
        }
    },
    "is_potentially_hazardous_asteroid": false,
    "close_approach_data": [
        {
            "close_approach_date": "1977-09-19",
            "close_approach_date_full": "1977-Sep-19 21:38",
            "epoch_date_close_approach": 243553080000,
            "relative_velocity": {
                "kilometers_per_second": "18.5847288576",
                "kilometers_per_hour": "66905.0238874968",
                "miles_per_hour": "41572.1799816504"
            },
            "miss_distance": {
                "astronomical": "0.3335373203",
                "lunar": "129.7460175967",
                "kilometers": "49896472.682387761",
                "miles": "31004230.4395666618"
            },
            "orbiting_body": "Earth"
        },
        {
            "close_approach_date": "1980-04-22",
            "close_approach_date_full": "1980-Apr-22 01:08",
            "epoch_date_close_approach": 325213680000,
            "relative_velocity": {
                "kilometers_per_second": "5.9409408397",
                "kilometers_per_hour": "21387.3870227799",
                "miles_per_hour": "13289.2905642378"
            },
            "miss_distance": {
                "astronomical": "1.2636231451",
                "lunar": "491.5494034439",
                "kilometers": "189035330.989660937",
                "miles": "117461107.9330254506"
            },
            "orbiting_body": "Juptr"
        },
        {
            "close_approach_date": "2018-09-02",
            "close_approach_date_full": "2018-Sep-02 22:54",
            "epoch_date_close_approach": 1535928840000,
            "relative_velocity": {
                "kilometers_per_second": "14.5401299217",
                "kilometers_per_hour": "52344.4677182348",
                "miles_per_hour": "32524.8166219221"
            },
            "miss_distance": {
                "astronomical": "0.2893679563",
                "lunar": "112.5641350007",
                "kilometers": "43288829.908733081",
                "miles": "26898431.6084392778"
            },
            "orbiting_body": "Earth"
        },
        {
            "close_approach_date": "2039-06-27",
            "close_approach_date_full": "2039-Jun-27 01:58",
            "epoch_date_close_approach": 2192752680000,
            "relative_velocity": {
                "kilometers_per_second": "6.5822132103",
                "kilometers_per_hour": "23695.9675569346",
                "miles_per_hour": "14723.7527300297"
            },
            "miss_distance": {
                "astronomical": "1.3246703982",
                "lunar": "515.2967848998",
                "kilometers": "198167870.022771834",
                "miles": "123135804.5490219492"
            },
            "orbiting_body": "Juptr"
        }
    ],
    "orbital_data": {
        "orbit_id": "6",
        "orbit_determination_date": "2018-11-02 06:38:49",
        "first_observation_date": "2018-09-13",
        "last_observation_date": "2018-11-01",
        "data_arc_in_days": 49,
        "observations_used": 48,
        "orbit_uncertainty": "6",
        "minimum_orbit_intersection": ".188527",
        "jupiter_tisserand_invariant": "2.968",
        "epoch_osculation": "2459000.5",
        "eccentricity": ".5731830044792173",
        "semi_major_axis": "2.749553102137262",
        "inclination": "25.46148558535523",
        "ascending_node_longitude": "171.9369116283665",
        "orbital_period": "1665.296595988191",
        "perihelion_distance": "1.173555994079074",
        "perihelion_argument": "158.8454006683224",
        "aphelion_distance": "4.325550210195449",
        "perihelion_time": "2458343.139814424078",
        "mean_anomaly": "142.1066177505176",
        "mean_motion": ".2161777072428201",
        "equinox": "J2000",
        "orbit_class": {
            "orbit_class_type": "AMO",
            "orbit_class_description": "Near-Earth asteroid orbits similar to that of 1221 Amor",
            "orbit_class_range": "1.017 AU < q (perihelion) < 1.3 AU"
        }
    },
    "is_sentry_object": false
}